[
    {
        "CCSDS_OMM_VERS": "3.0",
        "COMMENT": "GENERATED VIA SPACE-TRACK.ORG API",
        "CREATION_DATE": "2025-05-04T02:26:54",
        "ORIGINATOR": "18 SPCS",
        "OBJECT_NAME": "NAVSTAR 66 (USA 232)",
        "OBJECT_ID": "2011-036A",
        "CENTER_NAME": "EARTH",
        "REF_FRAME": "TEME",
        "TIME_SYSTEM": "UTC",
        "MEAN_ELEMENT_THEORY": "SGP4",
        "EPOCH": "2025-05-03T18:42:00.669888",
        "MEAN_MOTION": "2.00566772",
        "ECCENTRICITY": "0.01353940",
        "INCLINATION": "56.7169",
        "RA_OF_ASC_NODE": "347.9266",
        "ARG_OF_PERICENTER": "59.5166",
        "MEAN_ANOMALY": "120.2239",
        "EPHEMERIS_TYPE": "0",
        "CLASSIFICATION_TYPE": "U",
        "NORAD_CAT_ID": "37753",
        "ELEMENT_SET_NO": "999",
        "REV_AT_EPOCH": "10106",
        "BSTAR": "0.00000000000000",
        "MEAN_MOTION_DOT": "-0.00000098",
        "MEAN_MOTION_DDOT": "0.0000000000000",
        "SEMIMAJOR_AXIS": "26560.068",
        "PERIOD": "717.965",
        "APOAPSIS": "20541.541",
        "PERIAPSIS": "19822.326",
        "OBJECT_TYPE": "PAYLOAD",
        "RCS_SIZE": "LARGE",
        "COUNTRY_CODE": "US",
        "LAUNCH_DATE": "2011-07-16",
        "SITE": "AFETR",
        "DECAY_DATE": null,
        "FILE": "4718307",
        "GP_ID": "286795913",
        "TLE_LINE0": "0 NAVSTAR 66 (USA 232)",
        "TLE_LINE1": "1 37753U 11036A   25123.77917442 -.00000098  00000-0  00000-0 0  9998",
        "TLE_LINE2": "2 37753  56.7169 347.9266 0135394  59.5166 120.2239  2.00566772101067"
    }
]